CCSDS_OMM_VERS = 2.0
CREATION_DATE  = 
ORIGINATOR     = 

OBJECT_NAME    = UNKNOWN
OBJECT_ID      = 
CENTER_NAME    = EARTH
REF_FRAME      = TEME
TIME_SYSTEM    = UTC
MEAN_ELEMENT_THEORY = SGP/SGP4

EPOCH          = 2026-01-07T18:18:17.339616
MEAN_MOTION    = 13.76002021
ECCENTRICITY   = .0107243
INCLINATION    = 100.3714
RA_OF_ASC_NODE = 202.6025
ARG_OF_PERICENTER = 48.8488
MEAN_ANOMALY   = 312.1852

EPHEMERIS_TYPE = 0
CLASSIFICATION_TYPE = U
NORAD_CAT_ID   = 270036
ELEMENT_SET_NO = 999
REV_AT_EPOCH   = 30655
BSTAR          = .20038197E-2
MEAN_MOTION_DOT = .1978E-4
MEAN_MOTION_DDOT = 0

CCSDS_OMM_VERS = 2.0
CREATION_DATE  = 
ORIGINATOR     = 

OBJECT_NAME    = UNKNOWN
OBJECT_ID      = 
CENTER_NAME    = EARTH
REF_FRAME      = TEME
TIME_SYSTEM    = UTC
MEAN_ELEMENT_THEORY = SGP/SGP4

EPOCH          = 2026-01-08T02:37:01.582176
MEAN_MOTION    = 12.80409235
ECCENTRICITY   = .01628704
INCLINATION    = 102.8584
RA_OF_ASC_NODE = 120.4466
ARG_OF_PERICENTER = 339.0369
MEAN_ANOMALY   = 20.4090

EPHEMERIS_TYPE = 0
CLASSIFICATION_TYPE = U
NORAD_CAT_ID   = 270038
ELEMENT_SET_NO = 999
REV_AT_EPOCH   = 28377
BSTAR          = .38245673E-1
MEAN_MOTION_DOT = .921E-4
MEAN_MOTION_DDOT = 0

CCSDS_OMM_VERS = 2.0
CREATION_DATE  = 
ORIGINATOR     = 

OBJECT_NAME    = UNKNOWN
OBJECT_ID      = 
CENTER_NAME    = EARTH
REF_FRAME      = TEME
TIME_SYSTEM    = UTC
MEAN_ELEMENT_THEORY = SGP/SGP4

EPOCH          = 2026-01-08T17:29:51.794016
MEAN_MOTION    = 14.04642359
ECCENTRICITY   = .00083402
INCLINATION    = 82.5523
RA_OF_ASC_NODE = 16.4929
ARG_OF_PERICENTER = 320.3817
MEAN_ANOMALY   = 39.6744

EPHEMERIS_TYPE = 0
CLASSIFICATION_TYPE = U
NORAD_CAT_ID   = 270039
ELEMENT_SET_NO = 999
REV_AT_EPOCH   = 31251
BSTAR          = .22124416E-2
MEAN_MOTION_DOT = .3553E-4
MEAN_MOTION_DDOT = 0

CCSDS_OMM_VERS = 2.0
CREATION_DATE  = 
ORIGINATOR     = 

OBJECT_NAME    = UNKNOWN
OBJECT_ID      = 
CENTER_NAME    = EARTH
REF_FRAME      = TEME
TIME_SYSTEM    = UTC
MEAN_ELEMENT_THEORY = SGP/SGP4

EPOCH          = 2026-01-04T08:29:34.001664
MEAN_MOTION    = 12.53355619
ECCENTRICITY   = .00271864
INCLINATION    = 101.4065
RA_OF_ASC_NODE = 48.9975
ARG_OF_PERICENTER = 180.3669
MEAN_ANOMALY   = 179.7388

EPHEMERIS_TYPE = 0
CLASSIFICATION_TYPE = U
NORAD_CAT_ID   = 270040
ELEMENT_SET_NO = 999
REV_AT_EPOCH   = 27934
BSTAR          = .41193787E-3
MEAN_MOTION_DOT = .23E-6
MEAN_MOTION_DDOT = 0

CCSDS_OMM_VERS = 2.0
CREATION_DATE  = 
ORIGINATOR     = 

OBJECT_NAME    = UNKNOWN
OBJECT_ID      = 
CENTER_NAME    = EARTH
REF_FRAME      = TEME
TIME_SYSTEM    = UTC
MEAN_ELEMENT_THEORY = SGP/SGP4

EPOCH          = 2026-01-07T14:03:17.525664
MEAN_MOTION    = 13.96284299
ECCENTRICITY   = .02198122
INCLINATION    = 98.4912
RA_OF_ASC_NODE = 118.9274
ARG_OF_PERICENTER = 303.3939
MEAN_ANOMALY   = 54.6366

EPHEMERIS_TYPE = 0
CLASSIFICATION_TYPE = U
NORAD_CAT_ID   = 270041
ELEMENT_SET_NO = 999
REV_AT_EPOCH   = 31064
BSTAR          = .12493524E-2
MEAN_MOTION_DOT = .2067E-4
MEAN_MOTION_DDOT = 0

CCSDS_OMM_VERS = 2.0
CREATION_DATE  = 
ORIGINATOR     = 

OBJECT_NAME    = UNKNOWN
OBJECT_ID      = 
CENTER_NAME    = EARTH
REF_FRAME      = TEME
TIME_SYSTEM    = UTC
MEAN_ELEMENT_THEORY = SGP/SGP4

EPOCH          = 2026-01-09T01:44:00.109536
MEAN_MOTION    = 12.26203820
ECCENTRICITY   = .01362916
INCLINATION    = 74.0224
RA_OF_ASC_NODE = 141.3181
ARG_OF_PERICENTER = 116.9073
MEAN_ANOMALY   = 244.5966

EPHEMERIS_TYPE = 0
CLASSIFICATION_TYPE = U
NORAD_CAT_ID   = 270042
ELEMENT_SET_NO = 999
REV_AT_EPOCH   = 27399
BSTAR          = .20752347E-3
MEAN_MOTION_DOT = .1E-6
MEAN_MOTION_DDOT = 0

CCSDS_OMM_VERS = 2.0
CREATION_DATE  = 
ORIGINATOR     = 

OBJECT_NAME    = UNKNOWN
OBJECT_ID      = 
CENTER_NAME    = EARTH
REF_FRAME      = TEME
TIME_SYSTEM    = UTC
MEAN_ELEMENT_THEORY = SGP/SGP4

EPOCH          = 2026-01-08T09:39:10.456704
MEAN_MOTION    = 13.92311174
ECCENTRICITY   = .02516229
INCLINATION    = 98.9085
RA_OF_ASC_NODE = 67.4283
ARG_OF_PERICENTER = 230.2758
MEAN_ANOMALY   = 127.5984

EPHEMERIS_TYPE = 0
CLASSIFICATION_TYPE = U
NORAD_CAT_ID   = 270043
ELEMENT_SET_NO = 999
REV_AT_EPOCH   = 30924
BSTAR          = .14194387E-2
MEAN_MOTION_DOT = .2318E-4
MEAN_MOTION_DDOT = 0

CCSDS_OMM_VERS = 2.0
CREATION_DATE  = 
ORIGINATOR     = 

OBJECT_NAME    = UNKNOWN
OBJECT_ID      = 
CENTER_NAME    = EARTH
REF_FRAME      = TEME
TIME_SYSTEM    = UTC
MEAN_ELEMENT_THEORY = SGP/SGP4

EPOCH          = 2026-01-06T17:50:12.312384
MEAN_MOTION    = 13.00592981
ECCENTRICITY   = .00151772
INCLINATION    = 90.2487
RA_OF_ASC_NODE = 9.7560
ARG_OF_PERICENTER = 299.4989
MEAN_ANOMALY   = 60.4619

EPHEMERIS_TYPE = 0
CLASSIFICATION_TYPE = U
NORAD_CAT_ID   = 270044
ELEMENT_SET_NO = 999
REV_AT_EPOCH   = 28982
BSTAR          = .11679732E-2
MEAN_MOTION_DOT = .362E-5
MEAN_MOTION_DDOT = 0

CCSDS_OMM_VERS = 2.0
CREATION_DATE  = 
ORIGINATOR     = 

OBJECT_NAME    = UNKNOWN
OBJECT_ID      = 
CENTER_NAME    = EARTH
REF_FRAME      = TEME
TIME_SYSTEM    = UTC
MEAN_ELEMENT_THEORY = SGP/SGP4

EPOCH          = 2026-01-07T06:38:49.138368
MEAN_MOTION    = 12.96421002
ECCENTRICITY   = .00381111
INCLINATION    = 90.2489
RA_OF_ASC_NODE = 9.7552
ARG_OF_PERICENTER = 194.1362
MEAN_ANOMALY   = 165.8695

EPHEMERIS_TYPE = 0
CLASSIFICATION_TYPE = U
NORAD_CAT_ID   = 270045
ELEMENT_SET_NO = 999
REV_AT_EPOCH   = 28930
BSTAR          = .6153044E-3
MEAN_MOTION_DOT = .184E-5
MEAN_MOTION_DDOT = 0

CCSDS_OMM_VERS = 2.0
CREATION_DATE  = 
ORIGINATOR     = 

OBJECT_NAME    = UNKNOWN
OBJECT_ID      = 
CENTER_NAME    = EARTH
REF_FRAME      = TEME
TIME_SYSTEM    = UTC
MEAN_ELEMENT_THEORY = SGP/SGP4

EPOCH          = 2026-01-04T06:23:21.316416
MEAN_MOTION    = 12.62580497
ECCENTRICITY   = .00570838
INCLINATION    = 73.9948
RA_OF_ASC_NODE = 15.9115
ARG_OF_PERICENTER = 76.9095
MEAN_ANOMALY   = 283.8325

EPHEMERIS_TYPE = 0
CLASSIFICATION_TYPE = U
NORAD_CAT_ID   = 270046
ELEMENT_SET_NO = 999
REV_AT_EPOCH   = 28129
BSTAR          = .92393425E-3
MEAN_MOTION_DOT = .151E-5
MEAN_MOTION_DDOT = 0

CCSDS_OMM_VERS = 2.0
CREATION_DATE  = 
ORIGINATOR     = 

OBJECT_NAME    = UNKNOWN
OBJECT_ID      = 
CENTER_NAME    = EARTH
REF_FRAME      = TEME
TIME_SYSTEM    = UTC
MEAN_ELEMENT_THEORY = SGP/SGP4

EPOCH          = 2026-01-09T08:48:14.252832
MEAN_MOTION    = 13.77788672
ECCENTRICITY   = .00327901
INCLINATION    = 82.9681
RA_OF_ASC_NODE = 254.6496
ARG_OF_PERICENTER = 303.7863
MEAN_ANOMALY   = 56.0173

EPHEMERIS_TYPE = 0
CLASSIFICATION_TYPE = U
NORAD_CAT_ID   = 270053
ELEMENT_SET_NO = 999
REV_AT_EPOCH   = 30738
BSTAR          = .46271755E-3
MEAN_MOTION_DOT = .479E-5
MEAN_MOTION_DDOT = 0

CCSDS_OMM_VERS = 2.0
CREATION_DATE  = 
ORIGINATOR     = 

OBJECT_NAME    = UNKNOWN
OBJECT_ID      = 
CENTER_NAME    = EARTH
REF_FRAME      = TEME
TIME_SYSTEM    = UTC
MEAN_ELEMENT_THEORY = SGP/SGP4

EPOCH          = 2026-01-07T04:56:09.861216
MEAN_MOTION    = 12.98539287
ECCENTRICITY   = .00300413
INCLINATION    = 90.2166
RA_OF_ASC_NODE = 344.3837
ARG_OF_PERICENTER = 75.4071
MEAN_ANOMALY   = 285.0378

EPHEMERIS_TYPE = 0
CLASSIFICATION_TYPE = U
NORAD_CAT_ID   = 270054
ELEMENT_SET_NO = 999
REV_AT_EPOCH   = 28962
BSTAR          = -.71334248E-3
MEAN_MOTION_DOT = -.203E-5
MEAN_MOTION_DDOT = 0

CCSDS_OMM_VERS = 2.0
CREATION_DATE  = 
ORIGINATOR     = 

OBJECT_NAME    = UNKNOWN
OBJECT_ID      = 
CENTER_NAME    = EARTH
REF_FRAME      = TEME
TIME_SYSTEM    = UTC
MEAN_ELEMENT_THEORY = SGP/SGP4

EPOCH          = 2026-01-07T16:44:06.273312
MEAN_MOTION    = 12.99294261
ECCENTRICITY   = .00323384
INCLINATION    = 90.2430
RA_OF_ASC_NODE = 1.4279
ARG_OF_PERICENTER = 63.6286
MEAN_ANOMALY   = 296.8150

EPHEMERIS_TYPE = 0
CLASSIFICATION_TYPE = U
NORAD_CAT_ID   = 270055
ELEMENT_SET_NO = 999
REV_AT_EPOCH   = 28997
BSTAR          = -.55550336E-3
MEAN_MOTION_DOT = -.158E-5
MEAN_MOTION_DDOT = 0

CCSDS_OMM_VERS = 2.0
CREATION_DATE  = 
ORIGINATOR     = 

OBJECT_NAME    = UNKNOWN
OBJECT_ID      = 
CENTER_NAME    = EARTH
REF_FRAME      = TEME
TIME_SYSTEM    = UTC
MEAN_ELEMENT_THEORY = SGP/SGP4

EPOCH          = 2026-01-02T23:43:18.057216
MEAN_MOTION    = 12.46187538
ECCENTRICITY   = .00842237
INCLINATION    = 101.5898
RA_OF_ASC_NODE = 102.7202
ARG_OF_PERICENTER = 103.8620
MEAN_ANOMALY   = 257.1836

EPHEMERIS_TYPE = 0
CLASSIFICATION_TYPE = U
NORAD_CAT_ID   = 270056
ELEMENT_SET_NO = 999
REV_AT_EPOCH   = 27760
BSTAR          = .34304288E-2
MEAN_MOTION_DOT = .46E-5
MEAN_MOTION_DDOT = 0

CCSDS_OMM_VERS = 2.0
CREATION_DATE  = 
ORIGINATOR     = 

OBJECT_NAME    = UNKNOWN
OBJECT_ID      = 
CENTER_NAME    = EARTH
REF_FRAME      = TEME
TIME_SYSTEM    = UTC
MEAN_ELEMENT_THEORY = SGP/SGP4

EPOCH          = 2026-01-08T05:37:11.052480
MEAN_MOTION    = 12.96032496
ECCENTRICITY   = .00430278
INCLINATION    = 90.2492
RA_OF_ASC_NODE = 9.6361
ARG_OF_PERICENTER = 210.8061
MEAN_ANOMALY   = 149.0533

EPHEMERIS_TYPE = 0
CLASSIFICATION_TYPE = U
NORAD_CAT_ID   = 270057
ELEMENT_SET_NO = 999
REV_AT_EPOCH   = 28942
BSTAR          = .19805532E-2
MEAN_MOTION_DOT = .573E-5
MEAN_MOTION_DDOT = 0

CCSDS_OMM_VERS = 2.0
CREATION_DATE  = 
ORIGINATOR     = 

OBJECT_NAME    = UNKNOWN
OBJECT_ID      = 
CENTER_NAME    = EARTH
REF_FRAME      = TEME
TIME_SYSTEM    = UTC
MEAN_ELEMENT_THEORY = SGP/SGP4

EPOCH          = 2026-01-07T17:34:13.433952
MEAN_MOTION    = 12.97946351
ECCENTRICITY   = .00295848
INCLINATION    = 90.2335
RA_OF_ASC_NODE = 1.8103
ARG_OF_PERICENTER = 101.1318
MEAN_ANOMALY   = 259.3132

EPHEMERIS_TYPE = 0
CLASSIFICATION_TYPE = U
NORAD_CAT_ID   = 270058
ELEMENT_SET_NO = 999
REV_AT_EPOCH   = 28972
BSTAR          = .27299482E-2
MEAN_MOTION_DOT = .807E-5
MEAN_MOTION_DDOT = 0

